STARLINK-6237           
1 57055U 23088H   26183.43612371  .00002312  00000+0  93508-4 0  9996
2 57055  43.0013 182.4446 0000490  16.6135 343.4732 15.27581650167885
STARLINK-6353           
1 57056U 23088J   26183.49252783 -.00000460  00000+0 -71911-5 0  9999
2 57056  43.0016 182.0074 0000962 275.5272  84.5470 15.27575638167896
STARLINK-6223           
1 57057U 23088K   26183.43356142 -.00000326  00000+0 -23214-5 0  9992
2 57057  43.0019 182.3998 0001183 275.3872  84.6845 15.27574094167889
STARLINK-6217           
1 57058U 23088L   26183.48867316  .00001934  00000+0  79775-4 0  9994
2 57058  43.0006 181.9834 0001423 270.3519  89.7170 15.27585948167898
STARLINK-6211           
1 57059U 23088M   26183.48996234 -.00000861  00000+0 -21772-4 0  9991
2 57059  43.0008 181.9779 0000915 274.3304  85.7443 15.27585000167898
STARLINK-6227           
1 57060U 23088N   26183.28623343 -.00000019  00000+0  88469-5 0  9990
2 57060  43.0014 183.8836 0001035 261.2587  98.8148 15.27576195167852
STARLINK-5869           
1 57061U 23088P   26183.50488185 -.00216522  00000+0 -81395-2 0  9996
2 57061  43.0068 185.4962 0001360 299.4316  60.6400 15.27384399166876
STARLINK-5536           
1 57062U 23088Q   26183.40080933 -.00003087  00000+0 -10269-3 0  9998
2 57062  43.0039 168.3037 0000930 294.3128  65.7627 15.27581817168047
STARLINK-5832           
1 57063U 23088R   26182.72972911  .00001070  00000+0  48413-4 0  9990
2 57063  43.0035 186.5885 0001226 273.5353  86.5358 15.27578457167772
STARLINK-5822           
1 57064U 23088S   26183.43999087 -.00000257  00000+0  18968-6 0  9994
2 57064  43.0037 182.4635 0001053 318.8636  41.2136 15.27573053166901
STARLINK-5830           
1 57065U 23088T   26183.45619504  .00002235  00000+0  90700-4 0  9999
2 57065  43.0036 185.9624 0001668 299.0137  61.0547 15.27586291166864
STARLINK-5827           
1 57066U 23088U   26182.72587487  .00000116  00000+0  13732-4 0  9999
2 57066  43.0044 186.5639 0001486 285.4544  74.6144 15.27578048166792
STARLINK-5824           
1 57067U 23088V   26182.73871260  .00001548  00000+0  65759-4 0  9992
2 57067  43.0029 186.6502 0001809 278.4228  81.6419 15.27588272167778
STARLINK-5844           
1 57068U 23088W   26183.46391575 -.00000225  00000+0  13267-5 0  9990
2 57068  43.0005 186.0516 0000575 243.6577 116.4216 15.27575594167845
STARLINK-5821           
1 57069U 23088X   26183.43035913  .00000448  00000+0  25804-4 0  9994
2 57069  43.0009 168.5425 0000950 270.1158  89.9585 15.27578039167874
STARLINK-5828           
1 57070U 23088Y   26183.40467582  .00001254  00000+0  55093-4 0  9993
2 57070  43.0016 168.3549 0000805 292.5676  67.5091 15.27566948168041
STARLINK-5834           
1 57071U 23088Z   26182.96238281  .00001320  00000+0  57504-4 0  9999
2 57071  43.0003 171.0539 0002115 257.4348 102.6267 15.27580459167802
STARLINK-5843           
1 57072U 23088AA  26182.95466699  .00003481  00000+0  13602-3 0  9995
2 57072  43.0012 170.9948 0001656 272.7516  87.3146 15.27560863166992
STARLINK-5838           
1 57073U 23088AB  26183.40852174 -.00000194  00000+0  24693-5 0  9997
2 57073  43.0007 168.3817 0000648 288.5724  71.5057 15.27574605167063
STARLINK-5773           
1 57074U 23088AC  26183.46004927  .00000772  00000+0  37569-4 0  9995
2 57074  43.0048 186.0220 0001856 282.5193  77.5451 15.27581414167846
STARLINK-5542           
1 57075U 23088AD  26183.23918421  .00000278  00000+0  19618-4 0  9990
2 57075  43.0010 168.8322 0000960 129.5914 230.5023 15.27581590168025
STARLINK-6155           
1 57076U 23088AE  26183.41623430 -.00000263  00000+0 -47346-7 0  9992
2 57076  42.9987 168.4449 0000184 353.3867   6.6982 15.27574498167872
STARLINK-6194           
1 57077U 23088AF  26183.23034211  .00001101  00000+0  49504-4 0  9991
2 57077  42.9989 169.6229 0000679 183.7774 176.3073 15.27579946168178
STARLINK-6245           
1 57079U 23088AH  26183.24947405  .00000293  00000+0  20181-4 0  9993
2 57079  43.0009 168.9111 0001020 268.4780  91.5955 15.27578005168022
STARLINK-6243           
1 57080U 23088AJ  26183.42264857 -.00000194  00000+0  24677-5 0  9994
2 57080  43.0030 168.4898 0001654 280.2492  79.8173 15.27581013167876
STARLINK-6184           
1 57081U 23088AK  26183.25718451 -.00000128  00000+0  48745-5 0  9999
2 57081  43.0016 168.9651 0000861 270.8970  89.1783 15.27575371168027
STARLINK-6248           
1 57082U 23088AL  26183.24304842  .00000281  00000+0  19732-4 0  9996
2 57082  43.0019 168.8613 0001401 269.2992  90.7700 15.27577933168028
STARLINK-6253           
1 57083U 23088AM  26183.40208701  .00000097  00000+0  13038-4 0  9990
2 57083  43.0021 168.3258 0000902 285.1300  74.9452 15.27578297168041
STARLINK-6240           
1 57084U 23088AN  26182.46869597 -.00000942  00000+0 -24723-4 0  9996
2 57084  43.0000 173.3713 0000620 259.9589 100.1193 15.27569730167906
STARLINK-6232           
1 57085U 23088AP  26183.43406266  .00005611  00000+0  21315-3 0  9994
2 57085  43.0002 167.7144 0000555 277.4863  82.5926 15.27597278168053
