OBJECT_NAME,OBJECT_ID,EPOCH,MEAN_MOTION,ECCENTRICITY,INCLINATION,RA_OF_ASC_NODE,ARG_OF_PERICENTER,MEAN_ANOMALY,EPHEMERIS_TYPE,CLASSIFICATION_TYPE,NORAD_CAT_ID,ELEMENT_SET_NO,REV_AT_EPOCH,BSTAR,MEAN_MOTION_DOT,MEAN_MOTION_DDOT
STARLINK-6237,2023-088H,2026-07-02T10:28:01.088544,15.27581650,.00004909,43.0013,182.4446,16.6135,343.4732,0,U,57055,999,16788,.93507956E-4,.2312E-4,0
STARLINK-6353,2023-088J,2026-07-02T11:49:14.404512,15.27575638,.00009628,43.0016,182.0074,275.5272,84.5470,0,U,57056,999,16789,-.7191094E-5,-.46E-5,0
STARLINK-6223,2023-088K,2026-07-02T10:24:19.706688,15.27574094,.00011834,43.0019,182.3998,275.3872,84.6845,0,U,57057,999,16788,-.2321384E-5,-.326E-5,0
STARLINK-6217,2023-088L,2026-07-02T11:43:41.361024,15.27585948,.00014235,43.0006,181.9834,270.3519,89.7170,0,U,57058,999,16789,.79775356E-4,.1934E-4,0
STARLINK-6211,2023-088M,2026-07-02T11:45:32.746176,15.27585000,.00009151,43.0008,181.9779,274.3304,85.7443,0,U,57059,999,16789,-.21771614E-4,-.861E-5,0
STARLINK-6227,2023-088N,2026-07-02T06:52:10.568352,15.27576195,.00010351,43.0014,183.8836,261.2587,98.8148,0,U,57060,999,16785,.8846947E-5,-.19E-6,0
STARLINK-5869,2023-088P,2026-07-02T12:07:01.791840,15.27384399,.00013602,43.0068,185.4962,299.4316,60.6400,0,U,57061,999,16687,-.81394821E-2,-.216522E-2,0
STARLINK-5536,2023-088Q,2026-07-02T09:37:09.926112,15.27581817,.00009301,43.0039,168.3037,294.3128,65.7627,0,U,57062,999,16804,-.10268818E-3,-.3087E-4,0
STARLINK-5832,2023-088R,2026-07-01T17:30:48.595104,15.27578457,.00012268,43.0035,186.5885,273.5353,86.5358,0,U,57063,999,16777,.48412827E-4,.107E-4,0
STARLINK-5822,2023-088S,2026-07-02T10:33:35.211168,15.27573053,.00010535,43.0037,182.4635,318.8636,41.2136,0,U,57064,999,16690,.189678E-6,-.257E-5,0
STARLINK-5830,2023-088T,2026-07-02T10:56:55.251456,15.27586291,.0001668,43.0036,185.9624,299.0137,61.0547,0,U,57065,999,16686,.90700418E-4,.2235E-4,0
STARLINK-5827,2023-088U,2026-07-01T17:25:15.588768,15.27578048,.00014868,43.0044,186.5639,285.4544,74.6144,0,U,57066,999,16679,.13731546E-4,.116E-5,0
STARLINK-5824,2023-088V,2026-07-01T17:43:44.768640,15.27588272,.00018098,43.0029,186.6502,278.4228,81.6419,0,U,57067,999,16777,.65758981E-4,.1548E-4,0
STARLINK-5844,2023-088W,2026-07-02T11:08:02.320800,15.27575594,.00005752,43.0005,186.0516,243.6577,116.4216,0,U,57068,999,16784,.1326712E-5,-.225E-5,0
STARLINK-5821,2023-088X,2026-07-02T10:19:43.028832,15.27578039,.00009503,43.0009,168.5425,270.1158,89.9585,0,U,57069,999,16787,.25804245E-4,.448E-5,0
STARLINK-5828,2023-088Y,2026-07-02T09:42:43.990848,15.27566948,.00008055,43.0016,168.3549,292.5676,67.5091,0,U,57070,999,16804,.5509306E-4,.1254E-4,0
STARLINK-5834,2023-088Z,2026-07-01T23:05:49.874784,15.27580459,.00021153,43.0003,171.0539,257.4348,102.6267,0,U,57071,999,16780,.57504065E-4,.132E-4,0
STARLINK-5843,2023-088AA,2026-07-01T22:54:43.227936,15.27560863,.0001656,43.0012,170.9948,272.7516,87.3146,0,U,57072,999,16699,.13602328E-3,.3481E-4,0
STARLINK-5838,2023-088AB,2026-07-02T09:48:16.278336,15.27574605,.00006485,43.0007,168.3817,288.5724,71.5057,0,U,57073,999,16706,.2469263E-5,-.194E-5,0
STARLINK-5773,2023-088AC,2026-07-02T11:02:28.256928,15.27581414,.0001856,43.0048,186.0220,282.5193,77.5451,0,U,57074,999,16784,.37569133E-4,.772E-5,0
STARLINK-5542,2023-088AD,2026-07-02T05:44:25.515744,15.27581590,.00009603,43.0010,168.8322,129.5914,230.5023,0,U,57075,999,16802,.19617542E-4,.278E-5,0
STARLINK-6155,2023-088AE,2026-07-02T09:59:22.643520,15.27574498,.00001843,42.9987,168.4449,353.3867,6.6982,0,U,57076,999,16787,-.47346E-7,-.263E-5,0
STARLINK-6194,2023-088AF,2026-07-02T05:31:41.558304,15.27579946,.00006794,42.9989,169.6229,183.7774,176.3073,0,U,57077,999,16817,.49504039E-4,.1101E-4,0
STARLINK-6245,2023-088AH,2026-07-02T05:59:14.557920,15.27578005,.00010201,43.0009,168.9111,268.4780,91.5955,0,U,57079,999,16802,.201814E-4,.293E-5,0
STARLINK-6243,2023-088AJ,2026-07-02T10:08:36.836448,15.27581013,.00016549,43.0030,168.4898,280.2492,79.8173,0,U,57080,999,16787,.2467676E-5,-.194E-5,0
STARLINK-6184,2023-088AK,2026-07-02T06:10:20.741664,15.27575371,.00008619,43.0016,168.9651,270.8970,89.1783,0,U,57081,999,16802,.4874483E-5,-.128E-5,0
STARLINK-6248,2023-088AL,2026-07-02T05:49:59.383488,15.27577933,.00014011,43.0019,168.8613,269.2992,90.7700,0,U,57082,999,16802,.19731642E-4,.281E-5,0
STARLINK-6253,2023-088AM,2026-07-02T09:39:00.317664,15.27578297,.00009024,43.0021,168.3258,285.1300,74.9452,0,U,57083,999,16804,.13038385E-4,.97E-6,0
STARLINK-6240,2023-088AN,2026-07-01T11:14:55.331808,15.27569730,.00006202,43.0000,173.3713,259.9589,100.1193,0,U,57084,999,16790,-.24722728E-4,-.942E-5,0
STARLINK-6232,2023-088AP,2026-07-02T10:25:03.013824,15.27597278,.00005556,43.0002,167.7144,277.4863,82.5926,0,U,57085,999,16805,.21315149E-3,.5611E-4,0
